ORBCOMM FM28 [-]        
1 25482U 98053H   17345.88623572 -.00000035  00000-0  37837-4 0  9998
2 25482  45.0076 180.7152 0002938 301.1646  58.8912 14.33428052  4449
